[{"OBJECT_NAME":"GAOFEN-3","OBJECT_ID":"2016-049A","EPOCH":"2026-03-10T00:17:49.684704","MEAN_MOTION":14.42215824,"ECCENTRICITY":0.00016662,"INCLINATION":98.4056,"RA_OF_ASC_NODE":78.2808,"ARG_OF_PERICENTER":90.4682,"MEAN_ANOMALY":269.6698,"EPHEMERIS_TYPE":0,"CLASSIFICATION_TYPE":"U","NORAD_CAT_ID":41727,"ELEMENT_SET_NO":999,"REV_AT_EPOCH":50435,"BSTAR":-1.4677779e-5,"MEAN_MOTION_DOT":-9.2e-7,"MEAN_MOTION_DDOT":0},{"OBJECT_NAME":"COSMOS 2251 DEB","OBJECT_ID":"1993-036BDL","EPOCH":"2026-03-06T07:42:48.124512","MEAN_MOTION":14.27532812,"ECCENTRICITY":0.0075109,"INCLINATION":74.0437,"RA_OF_ASC_NODE":41.5005,"ARG_OF_PERICENTER":71.9573,"MEAN_ANOMALY":288.9741,"EPHEMERIS_TYPE":0,"CLASSIFICATION_TYPE":"U","NORAD_CAT_ID":36550,"ELEMENT_SET_NO":999,"REV_AT_EPOCH":85788,"BSTAR":0.00088179378,"MEAN_MOTION_DOT":2.209e-5,"MEAN_MOTION_DDOT":0}]
